{"type": "FeatureCollection", "features": [{"type": "Feature", "properties": {"norad_id": 26766, "name": "INTELSAT 10 (IS-10)", "group": "intelsat", "lat": -5.424951032770275, "lon": -80.23326681350295, "alt_km": 36091.63042955208, "timestamp": "2025-12-12T03:50:52.084076+00:00", "meta": {"OBJECT_NAME": "INTELSAT 10 (IS-10)", "OBJECT_ID": "2001-019A", "EPOCH": "2025-12-11T14:11:41.135712", "MEAN_MOTION": 0.99078808, "ECCENTRICITY": 0.00077853, "INCLINATION": 8.6274, "RA_OF_ASC_NODE": 61.1692, "ARG_OF_PERICENTER": 224.4537, "MEAN_ANOMALY": 151.554, "EPHEMERIS_TYPE": 0, "CLASSIFICATION_TYPE": "U", "NORAD_CAT_ID": 26766, "ELEMENT_SET_NO": 999, "REV_AT_EPOCH": 4372, "BSTAR": 0, "MEAN_MOTION_DOT": -2.86e-06, "MEAN_MOTION_DDOT": 0}, "tle": {"line1": "1 26766U 01019A   25345.59144833 -.00000286  00000+0  00000+0 0  9999", "line2": "2 26766   8.6274  61.1692 0007785 224.4537 151.5540  0.99078808 43721"}}, "geometry": {"type": "Point", "coordinates": [-80.23326681350295, -5.424951032770275]}}, {"type": "Feature", "properties": {"norad_id": 26900, "name": "INTELSAT 902 (IS-902)", "group": "intelsat", "lat": 1.4293612006331036, "lon": 88.50680795832425, "alt_km": 35804.6828994308, "timestamp": "2025-12-12T03:50:52.084102+00:00", "meta": {"OBJECT_NAME": "INTELSAT 902 (IS-902)", "OBJECT_ID": "2001-039A", "EPOCH": "2025-12-01T16:59:59.311968", "MEAN_MOTION": 1.00270327, "ECCENTRICITY": 0.00043097, "INCLINATION": 5.6187, "RA_OF_ASC_NODE": 74.2002, "ARG_OF_PERICENTER": 175.119, "MEAN_ANOMALY": 26.3816, "EPHEMERIS_TYPE": 0, "CLASSIFICATION_TYPE": "U", "NORAD_CAT_ID": 26900, "ELEMENT_SET_NO": 999, "REV_AT_EPOCH": 8871, "BSTAR": 0, "MEAN_MOTION_DOT": -2.63e-06, "MEAN_MOTION_DDOT": 0}, "tle": {"line1": "1 26900U 01039A   25335.70832537 -.00000263  00000+0  00000+0 0  9993", "line2": "2 26900   5.6187  74.2002 0004309 175.1190  26.3816  1.00270327 88713"}}, "geometry": {"type": "Point", "coordinates": [88.50680795832425, 1.4293612006331036]}}, {"type": "Feature", "properties": {"norad_id": 27380, "name": "INTELSAT 904 (IS-904)", "group": "intelsat", "lat": 3.7935608533766234, "lon": 107.14938300823663, "alt_km": 35791.771489994484, "timestamp": "2025-12-12T03:50:52.084119+00:00", "meta": {"OBJECT_NAME": "INTELSAT 904 (IS-904)", "OBJECT_ID": "2002-007A", "EPOCH": "2025-12-11T11:39:03.254112", "MEAN_MOTION": 1.00272834, "ECCENTRICITY": 0.00015323, "INCLINATION": 6.4519, "RA_OF_ASC_NODE": 71.4464, "ARG_OF_PERICENTER": 223.4619, "MEAN_ANOMALY": 288.7916, "EPHEMERIS_TYPE": 0, "CLASSIFICATION_TYPE": "U", "NORAD_CAT_ID": 27380, "ELEMENT_SET_NO": 999, "REV_AT_EPOCH": 4988, "BSTAR": 0, "MEAN_MOTION_DOT": -2.2e-06, "MEAN_MOTION_DDOT": 0}, "tle": {"line1": "1 27380U 02007A   25345.48545433 -.00000220  00000+0  00000+0 0  9997", "line2": "2 27380   6.4519  71.4464 0001532 223.4619 288.7916  1.00272834 49888"}}, "geometry": {"type": "Point", "coordinates": [107.14938300823663, 3.7935608533766234]}}, {"type": "Feature", "properties": {"norad_id": 27426, "name": "DIRECTV 5 (TEMPO 1)", "group": "intelsat", "lat": -3.30360521949825, "lon": 28.821158479104923, "alt_km": 35793.226774200244, "timestamp": "2025-12-12T03:50:52.084132+00:00", "meta": {"OBJECT_NAME": "DIRECTV 5 (TEMPO 1)", "OBJECT_ID": "2002-023A", "EPOCH": "2025-12-11T09:33:43.623648", "MEAN_MOTION": 1.00271797, "ECCENTRICITY": 0.00035158, "INCLINATION": 4.3991, "RA_OF_ASC_NODE": 77.668, "ARG_OF_PERICENTER": 194.2691, "MEAN_ANOMALY": 201.729, "EPHEMERIS_TYPE": 0, "CLASSIFICATION_TYPE": "U", "NORAD_CAT_ID": 27426, "ELEMENT_SET_NO": 999, "REV_AT_EPOCH": 8624, "BSTAR": 0, "MEAN_MOTION_DOT": -5.1e-07, "MEAN_MOTION_DDOT": 0}, "tle": {"line1": "1 27426U 02023A   25345.39842157 -.00000051  00000+0  00000+0 0  9991", "line2": "2 27426   4.3991  77.6680 0003515 194.2691 201.7290  1.00271797 86244"}}, "geometry": {"type": "Point", "coordinates": [28.821158479104923, -3.30360521949825]}}, {"type": "Feature", "properties": {"norad_id": 27438, "name": "INTELSAT 905 (IS-905)", "group": "intelsat", "lat": -5.915777659982253, "lon": 1.7710225830783004, "alt_km": 35787.2307137481, "timestamp": "2025-12-12T03:50:52.084144+00:00", "meta": {"OBJECT_NAME": "INTELSAT 905 (IS-905)", "OBJECT_ID": "2002-027A", "EPOCH": "2025-12-11T12:11:37.320576", "MEAN_MOTION": 1.00272852, "ECCENTRICITY": 0.00027503, "INCLINATION": 6.283, "RA_OF_ASC_NODE": 72.0704, "ARG_OF_PERICENTER": 196.0234, "MEAN_ANOMALY": 218.0777, "EPHEMERIS_TYPE": 0, "CLASSIFICATION_TYPE": "U", "NORAD_CAT_ID": 27438, "ELEMENT_SET_NO": 999, "REV_AT_EPOCH": 4948, "BSTAR": 0, "MEAN_MOTION_DOT": 1e-06, "MEAN_MOTION_DDOT": 0}, "tle": {"line1": "1 27438U 02027A   25345.50807084  .00000100  00000+0  00000+0 0  9995", "line2": "2 27438   6.2830  72.0704 0002750 196.0234 218.0777  1.00272852 49488"}}, "geometry": {"type": "Point", "coordinates": [1.7710225830783004, -5.915777659982253]}}, {"type": "Feature", "properties": {"norad_id": 27445, "name": "GALAXY 3C (G-3C)", "group": "intelsat", "lat": -1.9267026131193823, "lon": 43.996339683989945, "alt_km": 35789.372160564184, "timestamp": "2025-12-12T03:50:52.084157+00:00", "meta": {"OBJECT_NAME": "GALAXY 3C (G-3C)", "OBJECT_ID": "2002-030A", "EPOCH": "2025-12-11T13:03:40.150944", "MEAN_MOTION": 1.00271539, "ECCENTRICITY": 0.00011176, "INCLINATION": 3.2614, "RA_OF_ASC_NODE": 80.5196, "ARG_OF_PERICENTER": 92.2293, "MEAN_ANOMALY": 8.809, "EPHEMERIS_TYPE": 0, "CLASSIFICATION_TYPE": "U", "NORAD_CAT_ID": 27445, "ELEMENT_SET_NO": 999, "REV_AT_EPOCH": 4461, "BSTAR": 0, "MEAN_MOTION_DOT": -1.45e-06, "MEAN_MOTION_DDOT": 0}, "tle": {"line1": "1 27445U 02030A   25345.54421471 -.00000145  00000+0  00000+0 0  9993", "line2": "2 27445   3.2614  80.5196 0001117  92.2293   8.8090  1.00271539 44614"}}, "geometry": {"type": "Point", "coordinates": [43.996339683989945, -1.9267026131193823]}}, {"type": "Feature", "properties": {"norad_id": 27513, "name": "INTELSAT 906 (IS-906)", "group": "intelsat", "lat": 4.204844143036384, "lon": -156.98387621296118, "alt_km": 35774.20870482232, "timestamp": "2025-12-12T03:50:52.084169+00:00", "meta": {"OBJECT_NAME": "INTELSAT 906 (IS-906)", "OBJECT_ID": "2002-041A", "EPOCH": "2025-12-11T08:40:50.039328", "MEAN_MOTION": 1.00271319, "ECCENTRICITY": 0.00061529, "INCLINATION": 5.3253, "RA_OF_ASC_NODE": 75.2478, "ARG_OF_PERICENTER": 191.7264, "MEAN_ANOMALY": 7.6889, "EPHEMERIS_TYPE": 0, "CLASSIFICATION_TYPE": "U", "NORAD_CAT_ID": 27513, "ELEMENT_SET_NO": 999, "REV_AT_EPOCH": 8514, "BSTAR": 0, "MEAN_MOTION_DOT": 1.9e-07, "MEAN_MOTION_DDOT": 0}, "tle": {"line1": "1 27513U 02041A   25345.36169027  .00000019  00000+0  00000+0 0  9996", "line2": "2 27513   5.3253  75.2478 0006152 191.7264   7.6889  1.00271319 85145"}}, "geometry": {"type": "Point", "coordinates": [-156.98387621296118, 4.204844143036384]}}, {"type": "Feature", "properties": {"norad_id": 27954, "name": "GALAXY 13 (HORIZONS-1)", "group": "intelsat", "lat": -0.9220526035638347, "lon": -11.157796663876265, "alt_km": 35787.29337230205, "timestamp": "2025-12-12T03:50:52.084181+00:00", "meta": {"OBJECT_NAME": "GALAXY 13 (HORIZONS-1)", "OBJECT_ID": "2003-044A", "EPOCH": "2025-12-11T12:47:49.167744", "MEAN_MOTION": 1.00271003, "ECCENTRICITY": 0.00020379, "INCLINATION": 0.9324, "RA_OF_ASC_NODE": 86.4856, "ARG_OF_PERICENTER": 165.9898, "MEAN_ANOMALY": 229.9694, "EPHEMERIS_TYPE": 0, "CLASSIFICATION_TYPE": "U", "NORAD_CAT_ID": 27954, "ELEMENT_SET_NO": 999, "REV_AT_EPOCH": 4469, "BSTAR": 0, "MEAN_MOTION_DOT": 1.4e-06, "MEAN_MOTION_DDOT": 0}, "tle": {"line1": "1 27954U 03044A   25345.53320796  .00000140  00000+0  00000+0 0  9995", "line2": "2 27954   0.9324  86.4856 0002037 165.9898 229.9694  1.00271003 44690"}}, "geometry": {"type": "Point", "coordinates": [-11.157796663876265, -0.9220526035638347]}}, {"type": "Feature", "properties": {"norad_id": 28358, "name": "INTELSAT 10-02", "group": "intelsat", "lat": 0.024852511773833942, "lon": 137.85270970138305, "alt_km": 35790.438903057715, "timestamp": "2025-12-12T03:50:52.084197+00:00", "meta": {"OBJECT_NAME": "INTELSAT 10-02", "OBJECT_ID": "2004-022A", "EPOCH": "2025-12-11T13:30:15.105312", "MEAN_MOTION": 1.00271737, "ECCENTRICITY": 0.00011498, "INCLINATION": 0.0251, "RA_OF_ASC_NODE": 67.6375, "ARG_OF_PERICENTER": 224.6769, "MEAN_ANOMALY": 349.8059, "EPHEMERIS_TYPE": 0, "CLASSIFICATION_TYPE": "U", "NORAD_CAT_ID": 28358, "ELEMENT_SET_NO": 999, "REV_AT_EPOCH": 7867, "BSTAR": 0, "MEAN_MOTION_DOT": -3e-08, "MEAN_MOTION_DDOT": 0}, "tle": {"line1": "1 28358U 04022A   25345.56267483 -.00000003  00000+0  00000+0 0  9996", "line2": "2 28358   0.0251  67.6375 0001149 224.6769 349.8059  1.00271737 78675"}}, "geometry": {"type": "Point", "coordinates": [137.85270970138305, 0.024852511773833942]}}, {"type": "Feature", "properties": {"norad_id": 28626, "name": "XM-3 (RHYTHM)", "group": "intelsat", "lat": -0.0025006356614051145, "lon": -104.1181383579738, "alt_km": 36160.48820934946, "timestamp": "2025-12-12T03:50:52.084222+00:00", "meta": {"OBJECT_NAME": "XM-3 (RHYTHM)", "OBJECT_ID": "2005-008A", "EPOCH": "2025-12-11T14:04:49.293696", "MEAN_MOTION": 0.98952926, "ECCENTRICITY": 0.00014883, "INCLINATION": 0.1719, "RA_OF_ASC_NODE": 81.409, "ARG_OF_PERICENTER": 268.8794, "MEAN_ANOMALY": 61.2624, "EPHEMERIS_TYPE": 0, "CLASSIFICATION_TYPE": "U", "NORAD_CAT_ID": 28626, "ELEMENT_SET_NO": 999, "REV_AT_EPOCH": 4073, "BSTAR": 0, "MEAN_MOTION_DOT": -1.86e-06, "MEAN_MOTION_DDOT": 0}, "tle": {"line1": "1 28626U 05008A   25345.58668164 -.00000186  00000+0  00000+0 0  9994", "line2": "2 28626   0.1719  81.4090 0001488 268.8794  61.2624  0.98952926 40736"}}, "geometry": {"type": "Point", "coordinates": [-104.1181383579738, -0.0025006356614051145]}}]}